satname,norad_id,inclination_deg,eccentricity,mean_motion_rev_per_day,perigee_km,apogee_km,l1,l2
STARLINK-1316,45415,53.1562,0.0004249,15.3987229,443.5868448075198,449.3864099660732,1 45415U 20019BH  26170.70570088  .00043372  00000+0  10789-2 0  9997,2 45415  53.1562  11.9838 0004249 121.2440 238.8981 15.39872290345665
STARLINK-1286,45417,53.0469,0.0002144,15.65386592,370.67989866732296,373.57441193711657,1 45417U 20019BK  26170.68193457  .00051070  00000+0  50491-3 0  9996,2 45417  53.0469 356.2743 0002144 270.1858  89.8911 15.65386592346113
STARLINK-1308,45419,53.0464,0.0006673,15.66838232,363.4555317330105,372.45886905285533,1 45419U 20019BM  26169.86709928  .00039380  00000+0  36875-3 0  9992,2 45419  53.0464  19.5467 0006673  79.1276 281.0490 15.66838232345463
STARLINK-1329,45531,53.0417,0.0001434,15.74853356,344.0844015243456,346.0126111275604,1 45531U 20025A   26170.56599803  .00062606  00000+0  41641-3 0  9996,2 45531  53.0417 299.1587 0001434 259.8465 100.2392 15.74853356341431
STARLINK-1338,45532,53.0431,0.0001857,15.70832084,355.26706169769386,357.7683124484729,1 45532U 20025B   26170.91668980  .00674167  00000+0  48969-2 0  9999,2 45532  53.0431 304.5493 0001857  93.3643  73.9712 15.70832084  5927
STARLINK-1350,45535,53.073,0.0001253,15.38465135,449.791768268723,451.50306164311223,1 45535U 20025E   26170.01211591  .00007834  00000+0  21341-3 0  9992,2 45535  53.0730 276.4014 0001253  73.8993 286.2148 15.38465135341747
STARLINK-1362,45538,53.1572,0.0002815,15.38412573,448.8806107348919,452.7253039308707,1 45538U 20025H   26170.69379648  .00036782  00000+0  96219-3 0  9997,2 45538  53.1572 344.5319 0002815 226.3268 133.7503 15.38412573340833
STARLINK-1368,45540,53.1565,0.000285,15.38515079,448.5534665766718,452.4457894546413,1 45540U 20025K   26170.70624394  .00041538  00000+0  10810-2 0  9990,2 45540  53.1565 344.8308 0002850 193.4704 166.6224 15.38515079340826
STARLINK-1371,45542,53.0427,0.0001542,15.66352275,368.31197164254354,370.39289738414845,1 45542U 20025M   26170.91668980  .01160407  00000+0  99131-2 0  9995,2 45542  53.0427 314.6830 0001542  80.7009  24.6914 15.66352275  5894
STARLINK-1372,45543,53.1576,0.0001776,15.39013495,447.8127226003289,450.23773062322107,1 45543U 20025N   26170.85593205  .00040904  00000+0  10477-2 0  9990,2 45543  53.1576 343.5848 0001776 183.0675 177.0319 15.39013495339953
STARLINK-1373,45544,53.0454,0.0002005,15.71120418,354.34356060146183,357.04382670961877,1 45544U 20025P   26170.57288725  .00053290  00000+0  41666-3 0  9995,2 45544  53.0454 311.3274 0002005  57.6111 302.5100 15.71120418341261
STARLINK-1327,45555,53.0396,0.0002092,15.69615395,358.58786957976645,361.40710504925937,1 45555U 20025AA  26170.91668980  .00452581  00000+0  35540-2 0  9999,2 45555  53.0396 287.0106 0002092  75.6704  77.5655 15.69615395  5963
STARLINK-1356,45564,53.0431,0.0001916,15.66168926,368.58611654285505,371.1719562880089,1 45564U 20025AK  26170.73668595  .00040110  00000+0  38602-3 0  9995,2 45564  53.0431 301.2458 0001916 347.1978  12.8988 15.66168926341410
STARLINK-1357,45565,53.0438,0.000272,15.70806301,354.7595352196604,358.4232274591104,1 45565U 20025AL  26170.48094210  .00054534  00000+0  43182-3 0  9999,2 45565  53.0438 258.8547 0002720 139.0459 221.0762 15.70806301341998
STARLINK-1361,45567,53.0416,0.0001882,15.67313842,365.3230137154833,367.8617298510226,1 45567U 20025AN  26170.91668980  .01185361  00000+0  97218-2 0  9992,2 45567  53.0416 298.8125 0001882  78.6448 166.0263 15.67313842  5851
STARLINK-1376,45570,53.1578,0.0001614,15.39452389,446.62586589923285,448.8292549793432,1 45570U 20025AR  26170.82998655  .00045690  00000+0  11517-2 0  9998,2 45570  53.1578 320.0762 0001614 177.7820 182.3192 15.39452389341188
STARLINK-1320,45572,53.0379,0.000961,15.90443555,294.62205469165747,307.4594343165936,1 45572U 20025AT  26170.91668980  .00221599  29085-4  71404-3 0  9990,2 45572  53.0379 194.0650 0009610  16.9121 145.0564 15.90443555  5925
STARLINK-1321,45573,53.0404,0.0001794,15.669077,366.5475957811923,368.9680228387724,1 45573U 20025AU  26170.91668980  .01031381  00000+0  87184-2 0  9992,2 45573  53.0404 282.6445 0001794  75.2537 147.3931 15.66907700  5940
STARLINK-1331,45578,53.0445,0.0001743,15.66910537,366.5738586551515,368.9254747471641,1 45578U 20025AZ  26170.91668980  .01216285  00000+0  10110-1 0  9999,2 45578  53.0445 289.5729 0001743  88.0874 352.8013 15.66910537  5958
STARLINK-1333,45580,53.1574,0.0001061,15.36362268,456.15197962551247,457.60236963336865,1 45580U 20025BB  26170.83614448  .00040738  00000+0  11369-2 0  9998,2 45580  53.1574 321.8169 0001061 242.6591 117.4304 15.36362268341163
STARLINK-1335,45581,53.1551,0.0002517,15.3802699,450.225120611668,453.6633835139555,1 45581U 20025BC  26170.78767443  .00057089  00000+0  15025-2 0  9997,2 45581  53.1551 318.6214 0002517 182.8107 177.2883 15.38026990341199
STARLINK-1337,45582,53.0436,0.0002418,15.76314413,339.26880426571006,342.5181273989856,1 45582U 20025BD  26170.80675537  .00067836  00000+0  42271-3 0  9998,2 45582  53.0436 278.5075 0002418 103.4829 256.6460 15.76314413341735
STARLINK-1347,45586,53.0374,5.18e-05,15.69802534,359.112958912855,359.81097416578905,1 45586U 20025BH  26169.95193801  .00044792  00000+0  37111-3 0  9998,2 45586  53.0374 253.7444 0000518  58.9486 301.1581 15.69802534342006
STARLINK-1364,45589,53.0424,0.0002147,15.70649906,355.59239842769784,358.4844827618881,1 45589U 20025BL  26170.71779715  .00056640  00000+0  45115-3 0  9999,2 45589  53.0424 286.5947 0002147 340.9930  19.1006 15.70649906341613
STARLINK-1365,45590,53.0445,0.0001572,15.63615055,376.1628378442392,378.2867235880967,1 45590U 20025BM  26170.91668980  .01251770  00000+0  12020-1 0  9993,2 45590  53.0445 320.6195 0001572  86.0162 285.7204 15.63615055  5909
STARLINK-1443,45660,53.1351,0.0001231,15.33534597,464.43418560673217,466.11903403747056,1 45660U 20035D   26170.13670899  .00045199  00000+0  13780-2 0  9998,2 45660  53.1351 314.0048 0001231  80.7117 279.4024 15.33534597334285
STARLINK-1446,45663,53.0197,0.0001455,15.48354773,420.5491851449333,422.5278907264719,1 45663U 20035G   26170.47410038  .00030090  00000+0  56544-3 0  9995,2 45663  53.0197 234.0360 0001455 286.1352  73.9494 15.48354773335410
STARLINK-1448,45665,53.0425,0.0001861,15.71293315,353.9466400026331,356.4527879275711,1 45665U 20035J   26170.91668980  .01098710  00000+0  77139-2 0  9993,2 45665  53.0425 273.0630 0001861  86.0764 119.4363 15.71293315  5969
STARLINK-1451,45668,53.0531,8.18e-05,15.14799561,521.0227453540256,522.1515402237865,1 45668U 20035M   26170.83896625  .00019871  00000+0  10710-2 0  9998,2 45668  53.0531 323.1329 0000818 145.5631 214.5415 15.14799561334205
STARLINK-1452,45669,53.0224,0.0006955,15.61019834,380.00641384340906,389.4135339841223,1 45669U 20035N   26170.38274177  .00096754  00000+0  11218-2 0  9990,2 45669  53.0224 251.5495 0006955 350.2555   9.8321 15.61019834335168
STARLINK-1453,45670,53.0379,0.0001552,15.71549349,353.4234716620804,355.5132723695542,1 45670U 20035P   26170.91668980  .00321244  00000+0  23662-2 0  9991,2 45670  53.0379 233.2855 0001552  76.8074 340.5425 15.71549349  5875
STARLINK-1454,45671,53.0412,0.0001892,15.68801057,361.05375694688246,363.604349301384,1 45671U 20035Q   26170.91668980  .01048417  00000+0  81955-2 0  9990,2 45671  53.0412 274.4330 0001892  69.5934  38.7740 15.68801057  5969
STARLINK-1456,45673,53.0404,8.83e-05,15.67360024,365.8643350153743,367.0554308248993,1 45673U 20035S   26170.91668980  .01207000  00000+0  98596-2 0  9996,2 45673  53.0404 269.1133 0000883  71.7553 169.3816 15.67360024  5907
STARLINK-1458,45675,53.046,0.0002619,15.59251564,388.04941951254386,391.59447640948565,1 45675U 20035U   26170.57503695  .00078444  00000+0  97722-3 0  9999,2 45675  53.0460 286.0879 0002619 354.1955   5.9026 15.59251564334664
STARLINK-1460,45676,53.1565,0.0002109,15.36156455,456.0460275393416,458.9292940212581,1 45676U 20035V   26170.74811270  .00041152  00000+0  11559-2 0  9999,2 45676  53.1565 309.4349 0002109 246.6458 113.4323 15.36156455334361
STARLINK-1392,45677,53.1522,0.0002499,15.39608792,445.5596088412349,448.9709448992144,1 45677U 20035W   26170.80505948  .00046816  00000+0  11736-2 0  9998,2 45677  53.1522 307.5133 0002499 276.6083  83.4638 15.39608792334436
STARLINK-1394,45679,53.0383,0.0001507,15.68249751,362.89263990418203,364.9246924679701,1 45679U 20035Y   26170.91668980 -.00213042  00000+0 -19107-2 0  9997,2 45679  53.0383 259.4186 0001507  89.1124 123.0843 15.68249751  5901
STARLINK-1402,45685,53.0393,0.0003786,15.59598338,386.25671202748435,391.3806508694761,1 45685U 20035AE  26170.49357601  .00079139  00000+0  97271-3 0  9996,2 45685  53.0393 252.9408 0003786 269.9896  90.0682 15.59598338335165
STARLINK-1404,45686,53.1556,0.0003225,15.46033902,426.14675943393286,430.5369382914496,1 45686U 20035AF  26170.62004440  .00039363  00000+0  79771-3 0  9992,2 45686  53.1556 289.4906 0003225 274.9411  85.1228 15.46033902334676
STARLINK-1413,45689,53.1568,0.000244,15.36110465,455.95617005668555,459.2920214714177,1 45689U 20035AJ  26170.72237565  .00041746  00000+0  11740-2 0  9991,2 45689  53.1568 294.2049 0002440 292.8224  67.2521 15.36110465334534
STARLINK-1417,45693,53.0488,0.0003372,15.17414164,511.33516989567306,515.9829971744093,1 45693U 20035AN  26170.78530074  .00011170  00000+0  56655-3 0  9996,2 45693  53.0488 309.8170 0003372 181.6000 178.4984 15.17414164334371
STARLINK-1420,45695,53.0427,6.59e-05,15.69758178,359.1448708155049,360.03290308740543,1 45695U 20035AQ  26170.48867747  .00049403  00000+0  40934-3 0  9998,2 45695  53.0427 244.4594 0000659 138.5638 221.5428 15.69758178335279
STARLINK-1422,45696,53.1576,0.0001955,15.35919283,456.8548314419877,459.52783582043776,1 45696U 20035AR  26170.66085332  .00011760  00000+0  34185-3 0  9997,2 45696  53.1576 294.4478 0001955 273.7187  86.3592 15.35919283334607
